{
    "links": {
        "self": "http://www.neowsapp.com/rest/v1/neo/3869322?api_key=iIulBulltgU6a56xZRHN4H3l9WmuAYTsLGpBGhQ2"
    },
    "id": "3869322",
    "neo_reference_id": "3869322",
    "name": "(2019 SF5)",
    "designation": "2019 SF5",
    "nasa_jpl_url": "http://ssd.jpl.nasa.gov/sbdb.cgi?sstr=3869322",
    "absolute_magnitude_h": 25.2,
    "estimated_diameter": {
        "kilometers": {
            "estimated_diameter_min": 0.0242412481,
            "estimated_diameter_max": 0.0542050786
        },
        "meters": {
            "estimated_diameter_min": 24.2412481101,
            "estimated_diameter_max": 54.2050786336
        },
        "miles": {
            "estimated_diameter_min": 0.0150628086,
            "estimated_diameter_max": 0.0336814639
        },
        "feet": {
            "estimated_diameter_min": 79.5316564495,
            "estimated_diameter_max": 177.8381901842
        }
    },
    "is_potentially_hazardous_asteroid": false,
    "close_approach_data": [
        {
            "close_approach_date": "2006-05-03",
            "close_approach_date_full": "2006-May-03 23:20",
            "epoch_date_close_approach": 1146698400000,
            "relative_velocity": {
                "kilometers_per_second": "10.6158019655",
                "kilometers_per_hour": "38216.8870757935",
                "miles_per_hour": "23746.4874166229"
            },
            "miss_distance": {
                "astronomical": "0.0720642345",
                "lunar": "28.0329872205",
                "kilometers": "10780655.984380515",
                "miles": "6698789.001720507"
            },
            "orbiting_body": "Mars"
        },
        {
            "close_approach_date": "2018-02-02",
            "close_approach_date_full": "2018-Feb-02 17:33",
            "epoch_date_close_approach": 1517592780000,
            "relative_velocity": {
                "kilometers_per_second": "1.6069266506",
                "kilometers_per_hour": "5784.9359421359",
                "miles_per_hour": "3594.5342247122"
            },
            "miss_distance": {
                "astronomical": "1.9601185189",
                "lunar": "762.4861038521",
                "kilometers": "293229555.374994743",
                "miles": "182204396.7798757334"
            },
            "orbiting_body": "Juptr"
        },
        {
            "close_approach_date": "2019-10-30",
            "close_approach_date_full": "2019-Oct-30 13:19",
            "epoch_date_close_approach": 1572441540000,
            "relative_velocity": {
                "kilometers_per_second": "5.8317308986",
                "kilometers_per_hour": "20994.2312347866",
                "miles_per_hour": "13044.9988469706"
            },
            "miss_distance": {
                "astronomical": "0.0920612147",
                "lunar": "35.8118125183",
                "kilometers": "13772161.628732689",
                "miles": "8557624.4137775482"
            },
            "orbiting_body": "Earth"
        },
        {
            "close_approach_date": "2027-01-22",
            "close_approach_date_full": "2027-Jan-22 17:53",
            "epoch_date_close_approach": 1800640380000,
            "relative_velocity": {
                "kilometers_per_second": "12.2814525846",
                "kilometers_per_hour": "44213.2293045517",
                "miles_per_hour": "27472.3812864866"
            },
            "miss_distance": {
                "astronomical": "0.0474629432",
                "lunar": "18.4630849048",
                "kilometers": "7100355.206650984",
                "miles": "4411956.1402882192"
            },
            "orbiting_body": "Mars"
        },
        {
            "close_approach_date": "2029-12-24",
            "close_approach_date_full": "2029-Dec-24 20:56",
            "epoch_date_close_approach": 1892840160000,
            "relative_velocity": {
                "kilometers_per_second": "12.4973930881",
                "kilometers_per_hour": "44990.6151170992",
                "miles_per_hour": "27955.4185987331"
            },
            "miss_distance": {
                "astronomical": "0.0556626474",
                "lunar": "21.6527698386",
                "kilometers": "8327013.489601038",
                "miles": "5174166.2531608044"
            },
            "orbiting_body": "Mars"
        }
    ],
    "orbital_data": {
        "orbit_id": "4",
        "orbit_determination_date": "2019-11-25 04:54:51",
        "first_observation_date": "2019-09-26",
        "last_observation_date": "2019-11-24",
        "data_arc_in_days": 59,
        "observations_used": 27,
        "orbit_uncertainty": "6",
        "minimum_orbit_intersection": ".0892438",
        "jupiter_tisserand_invariant": "3.402",
        "epoch_osculation": "2459000.5",
        "eccentricity": ".5300345617620642",
        "semi_major_axis": "2.28270385371619",
        "inclination": "2.40848822730251",
        "ascending_node_longitude": "349.3442928017985",
        "orbital_period": "1259.716404327951",
        "perihelion_distance": "1.072791916979154",
        "perihelion_argument": "56.03986233246593",
        "aphelion_distance": "3.492615790453225",
        "perihelion_time": "2458793.928420625190",
        "mean_anomaly": "59.03373832351198",
        "mean_motion": ".2857786076002218",
        "equinox": "J2000",
        "orbit_class": {
            "orbit_class_type": "AMO",
            "orbit_class_description": "Near-Earth asteroid orbits similar to that of 1221 Amor",
            "orbit_class_range": "1.017 AU < q (perihelion) < 1.3 AU"
        }
    },
    "is_sentry_object": false
}